ONEWEB-0549             
1 56051U 23043F   25251.87725857  .00000083  00000+0  16996-3 0  9997
2 56051  87.9219 300.1266 0001687  99.9522 260.1802 13.21826934121069
ONEWEB-0550             
1 56052U 23043G   25251.86462606  .00000038  00000+0  60518-4 0  9997
2 56052  87.9219 300.1232 0002111  92.8860 267.2516 13.21823937121063
ONEWEB-0551             
1 56053U 23043H   25251.89522985 -.00000065  00000+0 -20732-3 0  9993
2 56053  87.9040 315.3628 0001666  97.7328 262.3991 13.15550146119411
ONEWEB-0552             
1 56054U 23043J   25251.85833235  .00000098  00000+0  20616-3 0  9998
2 56054  87.9218 300.1331 0001696  90.6020 269.5308 13.21826554121067
ONEWEB-0553             
1 56055U 23043K   25251.91719107 -.00000846  00000+0 -22461-2 0  9999
2 56055  87.8989 284.8354 0002373  92.5346 267.6056 13.16599083121966
ONEWEB-0554             
1 56056U 23043L   25251.82852454  .00000034  00000+0  54888-4 0  9990
2 56056  87.8981 284.8776 0002093  87.8536 272.2835 13.16592978121934
ONEWEB-0555             
1 56057U 23043M   25251.63852518 -.00000020  00000+0 -86577-4 0  9998
2 56057  87.8992 284.8852 0002444 100.0832 260.0574 13.16595377121918
ONEWEB-0557             
1 56058U 23043N   25251.80477317 -.00000006  00000+0 -48500-4 0  9996
2 56058  87.8981 284.8706 0003158  83.1168 277.0322 13.16594181121934
